OBJECT_NAME,OBJECT_ID,EPOCH,MEAN_MOTION,ECCENTRICITY,INCLINATION,RA_OF_ASC_NODE,ARG_OF_PERICENTER,MEAN_ANOMALY,EPHEMERIS_TYPE,CLASSIFICATION_TYPE,NORAD_CAT_ID,ELEMENT_SET_NO,REV_AT_EPOCH,BSTAR,MEAN_MOTION_DOT,MEAN_MOTION_DDOT
STARLINK-32009,2024-117P,2026-07-17T14:14:22.574112,15.34384090,.0001394,53.1595,153.1177,94.1949,265.9213,0,U,60104,999,11678,.25206E-6,-.368E-5,0
STARLINK-32018,2024-117Q,2026-07-17T21:33:05.911776,15.34360765,.0002648,53.1593,151.4908,77.6367,282.4932,0,U,60105,999,11683,-.1169154E-3,-.4321E-4,0
STARLINK-32045,2024-117R,2026-07-17T07:19:48.059904,15.34394479,.0001258,53.1589,154.1922,90.7347,269.3800,0,U,60106,999,11674,.11687E-4,.19E-6,0
STARLINK-32035,2024-117S,2026-07-17T20:26:32.310240,15.34381012,.00011474,53.1598,151.9119,88.0279,272.0855,0,U,60107,999,11682,.15999889E-4,.164E-5,0
STARLINK-32042,2024-117T,2026-07-17T06:49:37.979040,15.34389894,.0001558,53.1612,154.7672,83.5492,276.5688,0,U,60108,999,11673,-.1964E-4,-.104E-4,0
STARLINK-32040,2024-117U,2026-07-17T20:11:23.262144,15.34385023,.00013394,53.1604,151.8506,92.9586,267.1570,0,U,60109,999,11682,-.4421163E-5,-.526E-5,0
STARLINK-32001,2024-117V,2026-07-17T21:17:54.651840,15.34414571,.00011188,53.1604,151.4214,83.8165,276.2965,0,U,60110,999,11683,-.14866522E-3,-.5398E-4,0
STARLINK-32015,2024-117W,2026-07-17T21:36:07.353504,15.34362957,.0001253,53.1617,151.5016,91.3927,268.7219,0,U,60111,999,11683,-.577436E-4,-.2324E-4,0
STARLINK-32024,2024-117X,2026-07-17T22:00:01.999584,15.34393317,.00010786,53.1610,151.8809,92.2805,127.1535,0,U,60112,999,586,.17931517E-3,.5686E-4,0
STARLINK-11201 [DTC],2024-118A,2026-07-17T14:30:29.014272,15.69708334,.00007803,53.1589,301.1404,111.8638,248.2463,0,U,60113,999,11839,-.1898517E-5,-.818E-5,0
STARLINK-11198 [DTC],2024-118B,2026-07-17T15:55:06.429504,15.69692675,.00007782,53.1592,300.7924,82.1269,277.9837,0,U,60114,999,11840,.50688163E-4,.5552E-4,0
STARLINK-11112 [DTC],2024-118C,2026-07-17T17:19:43.904352,15.69701293,.00010352,53.1587,300.4495,77.7312,282.3822,0,U,60115,999,11841,-.6915011E-5,-.1426E-4,0
STARLINK-11210 [DTC],2024-118D,2026-07-17T17:12:39.717504,15.69707549,.00007762,53.1589,300.4203,107.3573,252.7529,0,U,60116,999,11841,.994621E-6,-.468E-5,0
STARLINK-11203 [DTC],2024-118E,2026-07-16T18:10:20.155008,15.69714613,.00010403,53.1576,305.0928,78.7897,281.3238,0,U,60117,999,11826,.59982811E-4,.6685E-4,0
STARLINK-11177 [DTC],2024-118F,2026-07-17T13:55:09.719904,15.69717827,.0001457,53.1588,300.9797,84.6067,275.5117,0,U,60118,999,11839,-.12921E-4,-.2155E-4,0
STARLINK-11127 [DTC],2024-118G,2026-07-17T07:41:21.096384,15.69666039,.0002574,53.1590,302.2000,134.7120,225.4107,0,U,60119,999,11835,.95195E-4,.10938E-3,0
STARLINK-11164 [DTC],2024-118H,2026-07-17T16:44:24.265248,15.69703669,.00009282,53.1576,300.2844,79.9822,280.1300,0,U,60120,999,11841,-.7746123E-5,-.1526E-4,0
STARLINK-11119 [DTC],2024-118J,2026-07-17T16:23:13.084512,15.69705272,.00009715,53.1589,300.1877,72.3916,287.7208,0,U,60121,999,11841,-.7525209E-5,-.15E-4,0
STARLINK-11157 [DTC],2024-118K,2026-07-17T16:30:15.449184,15.69756528,.00006261,53.1586,300.2201,79.3757,280.7332,0,U,60122,999,11841,-.93089202E-4,-.11871E-3,0
STARLINK-11162 [DTC],2024-118L,2026-07-17T13:12:46.535040,15.69700457,.0002264,53.1568,300.7833,93.3250,266.8027,0,U,60123,999,11839,.12351E-4,.906E-5,0
STARLINK-11161 [DTC],2024-118M,2026-07-17T17:40:54.685920,15.69712486,.00009652,53.1582,300.5406,79.1575,280.9552,0,U,60124,999,11841,.13496973E-4,.1047E-4,0
STARLINK-11160 [DTC],2024-118N,2026-07-17T15:05:39.414624,15.69714222,.00010573,53.1587,300.5611,51.0956,309.0156,0,U,60125,999,11840,-.12499703E-4,-.2103E-4,0
STARLINK-31846,2024-118P,2026-07-17T20:33:00.146880,15.31699753,.00013234,53.1589,141.5299,82.7779,277.3373,0,U,60126,999,11563,.5115794E-5,-.206E-5,0
STARLINK-31840,2024-118Q,2026-07-17T06:20:37.895136,15.31711494,.000117,53.1588,144.2367,68.7414,291.3713,0,U,60127,999,11554,.31844E-4,.623E-5,0
STARLINK-31813,2024-118R,2026-07-17T19:52:40.860480,15.31695078,.00014699,53.1604,141.3597,78.8963,281.2204,0,U,60128,999,11563,.7198122E-5,-.142E-5,0
STARLINK-31845,2024-118S,2026-07-17T19:53:07.932192,15.34182410,.00013538,53.1617,139.9308,106.3354,253.7797,0,U,60129,999,11565,.10743867E-2,.35847E-3,0
STARLINK-31838,2024-118T,2026-07-17T20:06:07.285248,15.31690169,.00014137,53.1594,141.4121,96.5767,263.5396,0,U,60130,999,11563,.981514E-6,-.335E-5,0
STARLINK-31785,2024-118U,2026-07-17T19:45:57.744864,15.31693277,.00012894,53.1583,141.3277,84.4404,275.6744,0,U,60131,999,11563,-.40151448E-4,-.1611E-4,0
STARLINK-31792,2024-118V,2026-07-17T00:59:23.109216,15.30183278,.0001719,53.1605,143.5093,62.3783,297.7392,0,U,60132,999,11553,-.65768E-4,-.2306E-4,0
STARLINK-32043,2024-120A,2026-07-17T22:04:50.972160,15.34389178,.00013521,53.1611,73.7019,93.0539,267.0618,0,U,60135,999,11633,-.13256302E-4,-.824E-5,0
