STARLINK-32009          
1 60104U 24117P   26198.59331683 -.00000368  00000+0  25206-6 0  9998
2 60104  53.1595 153.1177 0001394  94.1949 265.9213 15.34384090116787
STARLINK-32018          
1 60105U 24117Q   26198.89798509 -.00004321  00000+0 -11692-3 0  9991
2 60105  53.1593 151.4908 0002648  77.6367 282.4932 15.34360765116833
STARLINK-32045          
1 60106U 24117R   26198.30541736  .00000019  00000+0  11687-4 0  9999
2 60106  53.1589 154.1922 0001258  90.7347 269.3800 15.34394479116742
STARLINK-32035          
1 60107U 24117S   26198.85176285  .00000164  00000+0  16000-4 0  9998
2 60107  53.1598 151.9119 0001147  88.0279 272.0855 15.34381012116826
STARLINK-32042          
1 60108U 24117T   26198.28446735 -.00001040  00000+0 -19640-4 0  9995
2 60108  53.1612 154.7672 0001558  83.5492 276.5688 15.34389894116731
STARLINK-32040          
1 60109U 24117U   26198.84124146 -.00000526  00000+0 -44212-5 0  9999
2 60109  53.1604 151.8506 0001339  92.9586 267.1570 15.34385023116828
STARLINK-32001          
1 60110U 24117V   26198.88743810 -.00005398  00000+0 -14867-3 0  9993
2 60110  53.1604 151.4214 0001118  83.8165 276.2965 15.34414571116830
STARLINK-32015          
1 60111U 24117W   26198.90008511 -.00002324  00000+0 -57744-4 0  9997
2 60111  53.1617 151.5016 0001253  91.3927 268.7219 15.34362957116834
STARLINK-32024          
1 60112U 24117X   26198.91668981  .00005686  00000+0  17932-3 0  9998
2 60112  53.1610 151.8809 0001078  92.2805 127.1535 15.34393317  5864
STARLINK-11201 [DTC]    
1 60113U 24118A   26198.60450248 -.00000818  00000+0 -18985-5 0  9996
2 60113  53.1589 301.1404 0000780 111.8638 248.2463 15.69708334118397
STARLINK-11198 [DTC]    
1 60114U 24118B   26198.66326886  .00005552  00000+0  50688-4 0  9996
2 60114  53.1592 300.7924 0000778  82.1269 277.9837 15.69692675118407
STARLINK-11112 [DTC]    
1 60115U 24118C   26198.72203593 -.00001426  00000+0 -69150-5 0  9996
2 60115  53.1587 300.4495 0001035  77.7312 282.3822 15.69701293118410
STARLINK-11210 [DTC]    
1 60116U 24118D   26198.71712636 -.00000468  00000+0  99462-6 0  9993
2 60116  53.1589 300.4203 0000776 107.3573 252.7529 15.69707549118415
STARLINK-11203 [DTC]    
1 60117U 24118E   26197.75717772  .00006685  00000+0  59983-4 0  9991
2 60117  53.1576 305.0928 0001040  78.7897 281.3238 15.69714613118260
STARLINK-11177 [DTC]    
1 60118U 24118F   26198.57997361 -.00002155  00000+0 -12921-4 0  9998
2 60118  53.1588 300.9797 0001457  84.6067 275.5117 15.69717827118394
STARLINK-11127 [DTC]    
1 60119U 24118G   26198.32038306  .00010938  00000+0  95195-4 0  9997
2 60119  53.1590 302.2000 0002574 134.7120 225.4107 15.69666039118355
STARLINK-11164 [DTC]    
1 60120U 24118H   26198.69750307 -.00001526  00000+0 -77461-5 0  9993
2 60120  53.1576 300.2844 0000928  79.9822 280.1300 15.69703669118416
STARLINK-11119 [DTC]    
1 60121U 24118J   26198.68279033 -.00001500  00000+0 -75252-5 0  9993
2 60121  53.1589 300.1877 0000971  72.3916 287.7208 15.69705272118417
STARLINK-11157 [DTC]    
1 60122U 24118K   26198.68767881 -.00011871  00000+0 -93089-4 0  9996
2 60122  53.1586 300.2201 0000626  79.3757 280.7332 15.69756528118415
STARLINK-11162 [DTC]    
1 60123U 24118L   26198.55053860  .00000906  00000+0  12351-4 0  9996
2 60123  53.1568 300.7833 0002264  93.3250 266.8027 15.69700457118399
STARLINK-11161 [DTC]    
1 60124U 24118M   26198.73674405  .00001047  00000+0  13497-4 0  9990
2 60124  53.1582 300.5406 0000965  79.1575 280.9552 15.69712486118416
STARLINK-11160 [DTC]    
1 60125U 24118N   26198.62892841 -.00002103  00000+0 -12500-4 0  9995
2 60125  53.1587 300.5611 0001057  51.0956 309.0156 15.69714222118407
STARLINK-31846          
1 60126U 24118P   26198.85625170 -.00000206  00000+0  51158-5 0  9994
2 60126  53.1589 141.5299 0001323  82.7779 277.3373 15.31699753115635
STARLINK-31840          
1 60127U 24118Q   26198.26432749  .00000623  00000+0  31844-4 0  9999
2 60127  53.1588 144.2367 0001170  68.7414 291.3713 15.31711494115542
STARLINK-31813          
1 60128U 24118R   26198.82825070 -.00000142  00000+0  71981-5 0  9999
2 60128  53.1604 141.3597 0001469  78.8963 281.2204 15.31695078115639
STARLINK-31845          
1 60129U 24118S   26198.82856403  .00035847  00000+0  10744-2 0  9990
2 60129  53.1617 139.9308 0001353 106.3354 253.7797 15.34182410115657
STARLINK-31838          
1 60130U 24118T   26198.83758432 -.00000335  00000+0  98151-6 0  9993
2 60130  53.1594 141.4121 0001413  96.5767 263.5396 15.31690169115633
STARLINK-31785          
1 60131U 24118U   26198.82358501 -.00001611  00000+0 -40151-4 0  9990
2 60131  53.1583 141.3277 0001289  84.4404 275.6744 15.31693277115632
STARLINK-31792          
1 60132U 24118V   26198.04123969 -.00002306  00000+0 -65768-4 0  9996
2 60132  53.1605 143.5093 0001719  62.3783 297.7392 15.30183278115538
STARLINK-32043          
1 60135U 24120A   26198.92003440 -.00000824  00000+0 -13256-4 0  9998
2 60135  53.1611  73.7019 0001352  93.0539 267.0618 15.34389178116334
